EUTELSAT QUANTUM        
1 49056U 21069B   25290.77826324  .00000117  00000+0  00000+0 0  9996
2 49056   0.0396  60.7456 0002705 170.1473 123.5131  1.00272093 15498
EUTELSAT KONNECT VHTS   
1 53765U 22110A   25290.76933654  .00000008  00000+0  00000+0 0  9999
2 53765   0.0585  95.3286 0002595  96.3822 114.4749  1.00270547  4392
EUTELSAT HOTBIRD 13F    
1 54048U 22134A   25290.70003711  .00000078  00000+0  00000+0 0  9993
2 54048   0.0559 281.7230 0002223  74.7875 294.9482  1.00270831 10946
EUTELSAT HOTBIRD 13G    
1 54225U 22146A   25290.77141655  .00000078  00000+0  00000+0 0  9990
2 54225   0.0483 234.9999 0001872 308.0319 134.2015  1.00270848  5036
EUTELSAT 10B            
1 54259U 22157A   25290.77080987  .00000059  00000+0  00000+0 0  9998
2 54259   0.0608  92.6356 0001616  45.4093 175.9428  1.00270662 10596
EUTELSAT 36D            
1 59346U 24059A   25290.20511573  .00000145  00000+0  00000+0 0  9997
2 59346   0.0190 221.9036 0000110 144.5116 129.2293  1.00271865  5717
